{
    "links": {
        "self": "http://www.neowsapp.com/rest/v1/neo/3768615?api_key=iIulBulltgU6a56xZRHN4H3l9WmuAYTsLGpBGhQ2"
    },
    "id": "3768615",
    "neo_reference_id": "3768615",
    "name": "(2017 CM1)",
    "designation": "2017 CM1",
    "nasa_jpl_url": "http://ssd.jpl.nasa.gov/sbdb.cgi?sstr=3768615",
    "absolute_magnitude_h": 25.8,
    "estimated_diameter": {
        "kilometers": {
            "estimated_diameter_min": 0.0183888672,
            "estimated_diameter_max": 0.0411187571
        },
        "meters": {
            "estimated_diameter_min": 18.388867207,
            "estimated_diameter_max": 41.1187571041
        },
        "miles": {
            "estimated_diameter_min": 0.0114263088,
            "estimated_diameter_max": 0.0255500032
        },
        "feet": {
            "estimated_diameter_min": 60.3309310875,
            "estimated_diameter_max": 134.9040630575
        }
    },
    "is_potentially_hazardous_asteroid": false,
    "close_approach_data": [
        {
            "close_approach_date": "2017-01-31",
            "close_approach_date_full": "2017-Jan-31 21:57",
            "epoch_date_close_approach": 1485899820000,
            "relative_velocity": {
                "kilometers_per_second": "6.3934813376",
                "kilometers_per_hour": "23016.532815473",
                "miles_per_hour": "14301.5784041476"
            },
            "miss_distance": {
                "astronomical": "0.0486887054",
                "lunar": "18.9399064006",
                "kilometers": "7283726.620897498",
                "miles": "4525897.8535535524"
            },
            "orbiting_body": "Earth"
        }
    ],
    "orbital_data": {
        "orbit_id": "6",
        "orbit_determination_date": "2018-01-18 06:53:08",
        "first_observation_date": "2017-02-02",
        "last_observation_date": "2017-03-06",
        "data_arc_in_days": 32,
        "observations_used": 24,
        "orbit_uncertainty": "7",
        "minimum_orbit_intersection": ".0467736",
        "jupiter_tisserand_invariant": "3.448",
        "epoch_osculation": "2459000.5",
        "eccentricity": ".5366123073682296",
        "semi_major_axis": "2.21598373799897",
        "inclination": "2.974889950175206",
        "ascending_node_longitude": "159.2003123488228",
        "orbital_period": "1204.892442561222",
        "perihelion_distance": "1.026859591260868",
        "perihelion_argument": "332.2220920755438",
        "aphelion_distance": "3.405107884737072",
        "perihelion_time": "2458988.959273179231",
        "mean_anomaly": "3.448159776523425",
        "mean_motion": ".2987818557768968",
        "equinox": "J2000",
        "orbit_class": {
            "orbit_class_type": "AMO",
            "orbit_class_description": "Near-Earth asteroid orbits similar to that of 1221 Amor",
            "orbit_class_range": "1.017 AU < q (perihelion) < 1.3 AU"
        }
    },
    "is_sentry_object": false
}